NORAD_CAT_ID,OBJECT_NAME,OBJECT_TYPE,EPOCH,MEAN_MOTION,ECCENTRICITY,INCLINATION,RA_OF_ASC_NODE,ARG_OF_PERICENTER,MEAN_ANOMALY,BSTAR,MEAN_MOTION_DOT,MEAN_MOTION_DDOT,TLE_LINE0,TLE_LINE1,TLE_LINE2,SEMIMAJOR_AXIS,PERIOD,APOGEE,PERIGEE,DECAYED
54051.0,STARLINK-5195,PAYLOAD,2023-09-13 22:57:31,15.08861327,0.0001277,53.2165,99.3365,91.9833,268.1305,0.00014009,1.944e-05,0.0,0 STARLINK-5195,1 54051U 22136A   23256.95661773  .00001944  00000-0  14009-3 0  9996,2 54051  53.2165  99.3365 0001277  91.9833 268.1305 15.08861327 50285,6917.815,95.436,540.564,538.797,0.0
54051.0,STARLINK-5195,PAYLOAD,2023-09-14 13:16:01,15.08831392,0.0001493,53.2153,96.6609,85.6099,274.5064,-3.7995e-06,-3.48e-06,0.0,0 STARLINK-5195,1 54051U 22136A   23257.55279790 -.00000348  00000-0 -37995-5 0  9997,2 54051  53.2153  96.6609 0001493  85.6099 274.5064 15.08831392 49894,6917.907,95.438,540.805,538.739,0.0
54051.0,STARLINK-5195,PAYLOAD,2023-09-14 18:02:10,15.0883532,0.0001894,53.2163,95.7653,121.2557,238.8621,-0.00010283,-1.924e-05,0.0,0 STARLINK-5195,1 54051U 22136A   23257.75151528 -.00001924  00000-0 -10283-3 0  9997,2 54051  53.2163  95.7653 0001894 121.2557 238.8621 15.08835320 50401,6917.895,95.438,541.07,538.449,0.0
54051.0,STARLINK-5195,PAYLOAD,2023-09-14 19:37:34,15.08830913,0.0001288,53.2153,95.4711,78.8294,281.2843,-8.3026e-05,-1.609e-05,0.0,0 STARLINK-5195,1 54051U 22136A   23257.81775945 -.00001609  00000-0 -83026-4 0  9995,2 54051  53.2153  95.4711 0001288  78.8294 281.2843 15.08830913 49931,6917.908,95.438,540.664,538.882,0.0
54051.0,STARLINK-5195,PAYLOAD,2023-09-15 13:06:48,15.08838816,0.0001292,53.2158,92.1992,78.8946,281.2191,3.4743e-06,-2.33e-06,0.0,0 STARLINK-5195,1 54051U 22136A   23258.54639881 -.00000233  00000-0  34743-5 0  9998,2 54051  53.2158  92.1992 0001292  78.8946 281.2191 15.08838816 50040,6917.884,95.438,540.643,538.855,0.0
54051.0,STARLINK-5195,PAYLOAD,2023-09-15 17:52:58,15.08844843,0.0001314,53.2155,91.3079,75.9889,284.1249,0.00011805,1.592e-05,0.0,0 STARLINK-5195,1 54051U 22136A   23258.74511625  .00001592  00000-0  11805-3 0  9995,2 54051  53.2155  91.3079 0001314  75.9889 284.1249 15.08844843 50552,6917.866,95.437,540.64,538.822,0.0
54051.0,STARLINK-5195,PAYLOAD,2023-09-16 12:57:36,15.08839451,0.0001043,53.2157,87.7394,57.2915,302.8178,0.00026837,3.986e-05,0.0,0 STARLINK-5195,1 54051U 22136A   23259.54000156  .00003986  00000-0  26837-3 0  9996,2 54051  53.2157  87.7394 0001043  57.2915 302.8178 15.08839451 50193,6917.882,95.438,540.469,539.026,0.0
54051.0,STARLINK-5195,PAYLOAD,2023-09-16 17:43:45,15.08846241,0.0001413,53.2159,86.8478,73.2508,286.8639,0.00034565,5.218e-05,0.0,0 STARLINK-5195,1 54051U 22136A   23259.73871952  .00005218  00000-0  34565-3 0  9994,2 54051  53.2159  86.8478 0001413  73.2508 286.8639 15.08846241 50700,6917.861,95.437,540.704,538.749,0.0
54051.0,STARLINK-5195,PAYLOAD,2023-09-17 12:48:22,15.08845239,0.0001356,53.2154,83.2792,75.8231,284.2912,0.00013016,1.784e-05,0.0,0 STARLINK-5195,1 54051U 22136A   23260.53359748  .00001784  00000-0  13016-3 0  9990,2 54051  53.2154  83.2792 0001356  75.8231 284.2912 15.08845239 50344,6917.864,95.437,540.667,538.791,0.0
54051.0,STARLINK-5195,PAYLOAD,2023-09-17 19:09:55,15.08848819,0.0001325,53.2156,82.0896,76.443,283.671,0.00013128,1.803e-05,0.0,0 STARLINK-5195,1 54051U 22136A   23260.79855518  .00001803  00000-0  13128-3 0  9990,2 54051  53.2156  82.0896 0001325  76.4430 283.6710 15.08848819 50865,6917.853,95.437,540.635,538.802,0.0
54051.0,STARLINK-5195,PAYLOAD,2023-09-18 17:25:19,15.0884006,0.0001341,53.2162,77.9267,78.7425,281.3717,1.5484e-05,-4.1e-07,0.0,0 STARLINK-5195,1 54051U 22136A   23261.72591866 -.00000041  00000-0  15484-4 0  9999,2 54051  53.2162  77.9267 0001341  78.7425 281.3717 15.08840060 51003,6917.88,95.438,540.673,538.818,0.0
54051.0,STARLINK-5195,PAYLOAD,2023-09-18 20:36:05,15.08842768,0.0001358,53.2166,77.3328,83.2226,276.8921,5.6711e-05,6.15e-06,0.0,0 STARLINK-5195,1 54051U 22136A   23261.85839728  .00000615  00000-0  56711-4 0  9999,2 54051  53.2166  77.3328 0001358  83.2226 276.8921 15.08842768 50548,6917.872,95.437,540.676,538.797,0.0
54051.0,STARLINK-5195,PAYLOAD,2023-09-19 22:02:15,15.08853042,0.0001343,53.2168,72.5745,91.5749,268.5397,0.00021971,3.212e-05,0.0,0 STARLINK-5195,1 54051U 22136A   23262.91822982  .00003212  00000-0  21971-3 0  9996,2 54051  53.2168  72.5745 0001343  91.5749 268.5397 15.08853042 51189,6917.841,95.437,540.635,538.776,0.0
54051.0,STARLINK-5195,PAYLOAD,2023-09-20 12:20:44,15.08832952,0.0001479,53.2165,69.8967,100.8618,259.2541,-5.8198e-05,-1.214e-05,0.0,0 STARLINK-5195,1 54051U 22136A   23263.51439958 -.00001214  00000-0 -58198-4 0  9994,2 54051  53.2165  69.8967 0001479 100.8618 259.2541 15.08832952 51275,6917.902,95.438,540.79,538.744,0.0
54051.0,STARLINK-5195,PAYLOAD,2023-09-20 18:42:17,15.0883168,0.0001311,53.2171,68.7085,80.3911,279.7229,-2.9239e-05,-7.53e-06,0.0,0 STARLINK-5195,1 54051U 22136A   23263.77936471 -.00000753  00000-0 -29239-4 0  9995,2 54051  53.2171  68.7085 0001311  80.3911 279.7229 15.08831680 50832,6917.906,95.438,540.678,538.864,0.0
54051.0,STARLINK-5195,PAYLOAD,2023-09-21 10:36:08,15.08837731,0.000124,53.217,65.7347,84.5723,275.541,0.00010189,1.334e-05,0.0,0 STARLINK-5195,1 54051U 22136A   23264.44176485  .00001334  00000-0  10189-3 0  9998,2 54051  53.2170  65.7347 0001240  84.5723 275.5410 15.08837731 50937,6917.887,95.438,540.61,538.895,0.0
54051.0,STARLINK-5195,PAYLOAD,2023-09-21 18:33:03,15.08845272,0.000121,53.2162,64.2477,80.7154,279.3975,0.00027113,4.03e-05,0.0,0 STARLINK-5195,1 54051U 22136A   23264.77296213  .00004030  00000-0  27113-3 0  9997,2 54051  53.2162  64.2477 0001210  80.7154 279.3975 15.08845272 51465,6917.864,95.437,540.566,538.892,0.0
54051.0,STARLINK-5195,PAYLOAD,2023-09-22 10:26:55,15.08844684,0.0001506,53.2163,61.276,77.0733,283.0428,0.00031087,4.664e-05,0.0,0 STARLINK-5195,1 54051U 22136A   23265.43536494  .00004664  00000-0  31087-3 0  9997,2 54051  53.2163  61.2760 0001506  77.0733 283.0428 15.08844684 51087,6917.866,95.437,540.773,538.689,0.0
54051.0,STARLINK-5195,PAYLOAD,2023-09-22 16:48:27,15.08848128,0.0001218,53.2161,60.0849,78.3464,281.7665,0.00036241,5.486e-05,0.0,0 STARLINK-5195,1 54051U 22136A   23265.70032281  .00005486  00000-0  36241-3 0  9992,2 54051  53.2161  60.0849 0001218  78.3464 281.7665 15.08848128 51608,6917.856,95.437,540.563,538.878,0.0
54051.0,STARLINK-5195,PAYLOAD,2023-09-22 19:59:14,15.08850658,0.0001249,53.2158,59.4898,80.5535,279.5598,0.00037004,5.608e-05,0.0,0 STARLINK-5195,1 54051U 22136A   23265.83280126  .00005608  00000-0  37004-3 0  9993,2 54051  53.2158  59.4898 0001249  80.5535 279.5598 15.08850658 51148,6917.848,95.437,540.577,538.849,0.0
54051.0,STARLINK-5195,PAYLOAD,2023-09-23 10:17:42,15.08844062,0.0001596,53.2147,56.8124,90.7608,269.3567,0.00011236,1.501e-05,0.0,0 STARLINK-5195,1 54051U 22136A   23266.42896283  .00001501  00000-0  11236-3 0  9993,2 54051  53.2147  56.8124 0001596  90.7608 269.3567 15.08844062 51716,6917.868,95.437,540.837,538.629,0.0
54051.0,STARLINK-5195,PAYLOAD,2023-09-23 13:28:28,15.08843866,0.0001417,53.2149,56.2167,97.7456,262.3697,0.00010916,1.45e-05,0.0,0 STARLINK-5195,1 54051U 22136A   23266.56144231  .00001450  00000-0  10916-3 0  9994,2 54051  53.2149  56.2167 0001417  97.7456 262.3697 15.08843866 51256,6917.869,95.437,540.714,538.753,0.0
54051.0,STARLINK-5195,PAYLOAD,2023-09-24 10:08:29,15.08840448,0.0001275,53.2175,52.3537,91.5652,268.5486,6.7183e-05,7.82e-06,0.0,0 STARLINK-5195,1 54051U 22136A   23267.42256484  .00000782  00000-0  67183-4 0  9990,2 54051  53.2175  52.3537 0001275  91.5652 268.5486 15.08840448 51869,6917.879,95.438,540.626,538.862,0.0
54051.0,STARLINK-5195,PAYLOAD,2023-09-24 13:19:15,15.088416,0.0001308,53.2175,51.7588,92.3029,267.8112,7.626e-05,9.26e-06,0.0,0 STARLINK-5195,1 54051U 22136A   23267.55504444  .00000926  00000-0  76260-4 0  9992,2 54051  53.2175  51.7588 0001308  92.3029 267.8112 15.08841600 51401,6917.875,95.437,540.645,538.836,0.0
54051.0,STARLINK-5195,PAYLOAD,2023-09-24 16:30:01,15.08847103,0.0001311,53.2175,51.1637,92.3695,267.7447,0.00010344,1.359e-05,0.0,0 STARLINK-5195,1 54051U 22136A   23267.68752143  .00001359  00000-0  10344-3 0  9998,2 54051  53.2175  51.1637 0001311  92.3695 267.7447 15.08847103 51429,6917.859,95.437,540.631,538.817,0.0
54051.0,STARLINK-5195,PAYLOAD,2023-09-25 13:10:02,15.08848026,0.0001413,53.218,47.299,103.3287,256.7863,0.00023129,3.396e-05,0.0,0 STARLINK-5195,1 54051U 22136A   23268.54864090  .00003396  00000-0  23129-3 0  9997,2 54051  53.2180  47.2990 0001413 103.3287 256.7863 15.08848026 51555,6917.856,95.437,540.698,538.743,0.0
54051.0,STARLINK-5195,PAYLOAD,2023-09-25 16:20:48,15.08857733,0.0001379,53.2177,46.705,96.4029,263.7121,0.00043715,6.679e-05,0.0,0 STARLINK-5195,1 54051U 22136A   23268.68111803  .00006679  00000-0  43715-3 0  9999,2 54051  53.2177  46.7050 0001379  96.4029 263.7121 15.08857733 52055,6917.826,95.436,540.645,538.737,0.0
54051.0,STARLINK-5195,PAYLOAD,2023-09-25 21:06:57,15.08869273,0.000136,53.2173,45.8104,93.533,266.5817,0.00070472,0.00010954,0.0,0 STARLINK-5195,1 54051U 22136A   23268.87983350  .00010954  00000-0  70472-3 0  9995,2 54051  53.2173  45.8104 0001360  93.5330 266.5817 15.08869273 52082,6917.791,95.436,540.597,538.715,0.0
54051.0,STARLINK-5195,PAYLOAD,2023-09-26 14:36:13,15.08831992,0.0001467,53.2177,42.5401,90.2199,269.8962,-0.00011252,-2.078e-05,0.0,0 STARLINK-5195,1 54051U 22136A   23269.60848655 -.00002078  00000-0 -11252-3 0  9996,2 54051  53.2177  42.5401 0001467  90.2199 269.8962 15.08831992 51718,6917.905,95.438,540.785,538.755,0.0
54051.0,STARLINK-5195,PAYLOAD,2023-09-26 16:11:36,15.08832118,0.0001478,53.2176,42.2425,91.1205,268.9957,-3.7759e-05,-8.89e-06,0.0,0 STARLINK-5195,1 54051U 22136A   23269.67472617 -.00000889  00000-0 -37759-4 0  9993,2 54051  53.2176  42.2425 0001478  91.1205 268.9957 15.08832118 52200,6917.904,95.438,540.792,538.747,0.0
